start=new Date('2022-01-16T00:00:00.000Z').valueOf();
sats=[{"TIME_SYSTEM":"UTC","PERIOD":"95.593","FILE":"3274041","MEAN_MOTION_DDOT":"0.0000000000000","ECCENTRICITY":"0.00015250","OBJECT_TYPE":"PAYLOAD","EPOCH":"2022-01-15T14:04:33.400416","NORAD_CAT_ID":"46566","SEMIMAJOR_AXIS":"6925.373","RA_OF_ASC_NODE":"113.6946","LAUNCH_DATE":"2020-10-06","APOAPSIS":"548.295","MEAN_MOTION_DOT":"0.00006709","BSTAR":"0.00046899000000","TLE_LINE1":"1 46566U 20070AL  22015.58649769  .00006709  00000-0  46899-3 0  9991","REV_AT_EPOCH":"7125","REF_FRAME":"TEME","DECAY_DATE":null,"CENTER_NAME":"EARTH","ARG_OF_PERICENTER":"87.6530","MEAN_ELEMENT_THEORY":"SGP4","EPHEMERIS_TYPE":"0","COUNTRY_CODE":"US","OBJECT_NAME":"STARLINK-1740","RCS_SIZE":"LARGE","MEAN_ANOMALY":"272.4634","GP_ID":"193924759","ELEMENT_SET_NO":"999","MEAN_MOTION":"15.06391869","CLASSIFICATION_TYPE":"U","SITE":"AFETR","OBJECT_ID":"2020-070AL","PERIAPSIS":"546.182","INCLINATION":"53.0539","TLE_LINE2":"2 46566  53.0539 113.6946 0001525  87.6530 272.4634 15.06391869 71257"},{"SITE":"AFETR","OBJECT_ID":"2020-070AM","CLASSIFICATION_TYPE":"U","MEAN_MOTION":"15.06405378","ELEMENT_SET_NO":"999","TLE_LINE2":"2 46567  53.0563 112.9759 0001429  93.9150 266.2002 15.06405378 71600","INCLINATION":"53.0563","PERIAPSIS":"546.207","RCS_SIZE":"LARGE","OBJECT_NAME":"STARLINK-1741","COUNTRY_CODE":"US","EPHEMERIS_TYPE":"0","GP_ID":"193946732","MEAN_ANOMALY":"266.2002","REV_AT_EPOCH":"7160","TLE_LINE1":"1 46567U 20070AM  22015.74868203 -.00000453  00000-0 -11492-4 0  9990","BSTAR":"-0.00001149200000","APOAPSIS":"548.187","LAUNCH_DATE":"2020-10-06","MEAN_MOTION_DOT":"-0.00000453","RA_OF_ASC_NODE":"112.9759","MEAN_ELEMENT_THEORY":"SGP4","ARG_OF_PERICENTER":"93.9150","CENTER_NAME":"EARTH","REF_FRAME":"TEME","DECAY_DATE":null,"MEAN_MOTION_DDOT":"0.0000000000000","FILE":"3274074","PERIOD":"95.592","TIME_SYSTEM":"UTC","SEMIMAJOR_AXIS":"6925.332","NORAD_CAT_ID":"46567","EPOCH":"2022-01-15T17:58:06.127392","OBJECT_TYPE":"PAYLOAD","ECCENTRICITY":"0.00014290"},{"GP_ID":"193915855","MEAN_ANOMALY":"263.2491","OBJECT_NAME":"STARLINK-1743","RCS_SIZE":"LARGE","COUNTRY_CODE":"US","EPHEMERIS_TYPE":"0","TLE_LINE2":"2 46568  53.0524  98.4843 0007208  96.9336 263.2491 15.48470577 71787","INCLINATION":"53.0524","PERIAPSIS":"416.301","CLASSIFICATION_TYPE":"U","MEAN_MOTION":"15.48470577","SITE":"AFETR","OBJECT_ID":"2020-070AN","ELEMENT_SET_NO":"999","OBJECT_TYPE":"PAYLOAD","ECCENTRICITY":"0.00072080","NORAD_CAT_ID":"46568","SEMIMAJOR_AXIS":"6799.337","EPOCH":"2022-01-15T12:04:42.048480","FILE":"3273762","MEAN_MOTION_DDOT":"0.0000000000000","PERIOD":"92.995","TIME_SYSTEM":"UTC","MEAN_ELEMENT_THEORY":"SGP4","ARG_OF_PERICENTER":"96.9336","CENTER_NAME":"EARTH","REF_FRAME":"TEME","DECAY_DATE":null,"REV_AT_EPOCH":"7178","LAUNCH_DATE":"2020-10-06","MEAN_MOTION_DOT":"0.00082198","APOAPSIS":"426.102","RA_OF_ASC_NODE":"98.4843","TLE_LINE1":"1 46568U 20070AN  22015.50326445  .00082198  00000-0  15129-2 0  9995","BSTAR":"0.00151290000000"},{"CENTER_NAME":"EARTH","REF_FRAME":"TEME","DECAY_DATE":null,"MEAN_ELEMENT_THEORY":"SGP4","ARG_OF_PERICENTER":"89.9293","MEAN_MOTION_DOT":"0.00000181","LAUNCH_DATE":"2020-10-06","APOAPSIS":"548.164","RA_OF_ASC_NODE":"112.8920","TLE_LINE1":"1 46569U 20070AP  22015.76342631  .00000181  00000-0  31067-4 0  9992","BSTAR":"0.00003106700000","REV_AT_EPOCH":"7160","OBJECT_TYPE":"PAYLOAD","ECCENTRICITY":"0.00013800","NORAD_CAT_ID":"46569","SEMIMAJOR_AXIS":"6925.343","EPOCH":"2022-01-15T18:19:20.033184","TIME_SYSTEM":"UTC","FILE":"3274074","MEAN_MOTION_DDOT":"0.0000000000000","PERIOD":"95.592","PERIAPSIS":"546.252","TLE_LINE2":"2 46569  53.0550 112.8920 0001380  89.9293 270.1854 15.06401872 71600","INCLINATION":"53.0550","ELEMENT_SET_NO":"999","CLASSIFICATION_TYPE":"U","MEAN_MOTION":"15.06401872","SITE":"AFETR","OBJECT_ID":"2020-070AP","MEAN_ANOMALY":"270.1854","GP_ID":"193947234","COUNTRY_CODE":"US","EPHEMERIS_TYPE":"0","OBJECT_NAME":"STARLINK-1747","RCS_SIZE":"LARGE"},{"MEAN_ELEMENT_THEORY":"SGP4","ARG_OF_PERICENTER":"84.3111","CENTER_NAME":"EARTH","DECAY_DATE":null,"REF_FRAME":"TEME","REV_AT_EPOCH":"7156","TLE_LINE1":"1 46570U 20070AQ  22015.53857402  .00002061  00000-0  15714-3 0  9995","BSTAR":"0.00015714000000","MEAN_MOTION_DOT":"0.00002061","LAUNCH_DATE":"2020-10-06","APOAPSIS":"548.043","RA_OF_ASC_NODE":"113.8949","NORAD_CAT_ID":"46570","SEMIMAJOR_AXIS":"6925.317","EPOCH":"2022-01-15T12:55:32.795328","OBJECT_TYPE":"PAYLOAD","ECCENTRICITY":"0.00012430","FILE":"3273762","MEAN_MOTION_DDOT":"0.0000000000000","PERIOD":"95.591","TIME_SYSTEM":"UTC","TLE_LINE2":"2 46570  53.0567 113.8949 0001243  84.3111 275.8020 15.06410353 71564","INCLINATION":"53.0567","PERIAPSIS":"546.321","SITE":"AFETR","OBJECT_ID":"2020-070AQ","CLASSIFICATION_TYPE":"U","MEAN_MOTION":"15.06410353","ELEMENT_SET_NO":"999","GP_ID":"193916857","MEAN_ANOMALY":"275.8020","RCS_SIZE":"LARGE","OBJECT_NAME":"STARLINK-1748","COUNTRY_CODE":"US","EPHEMERIS_TYPE":"0"},{"SITE":"AFETR","OBJECT_ID":"2020-070AR","CLASSIFICATION_TYPE":"U","MEAN_MOTION":"15.67794341","ELEMENT_SET_NO":"999","TLE_LINE2":"2 46571  53.0553  96.1029 0003833  33.3466 326.7790 15.67794341 71835","INCLINATION":"53.0553","PERIAPSIS":"362.631","RCS_SIZE":"LARGE","OBJECT_NAME":"STARLINK-1753","COUNTRY_CODE":"US","EPHEMERIS_TYPE":"0","GP_ID":"193946233","MEAN_ANOMALY":"326.7790","REV_AT_EPOCH":"7183","TLE_LINE1":"1 46571U 20070AR  22015.69080105  .00136139  00000-0  12006-2 0  9995","BSTAR":"0.00120060000000","APOAPSIS":"367.801","LAUNCH_DATE":"2020-10-06","MEAN_MOTION_DOT":"0.00136139","RA_OF_ASC_NODE":"96.1029","MEAN_ELEMENT_THEORY":"SGP4","ARG_OF_PERICENTER":"33.3466","CENTER_NAME":"EARTH","DECAY_DATE":null,"REF_FRAME":"TEME","FILE":"3274074","MEAN_MOTION_DDOT":"0.0000000000000","PERIOD":"91.849","TIME_SYSTEM":"UTC","NORAD_CAT_ID":"46571","SEMIMAJOR_AXIS":"6743.351","EPOCH":"2022-01-15T16:34:45.210720","OBJECT_TYPE":"PAYLOAD","ECCENTRICITY":"0.00038330"},{"PERIAPSIS":"546.146","TLE_LINE2":"2 46572  53.0532 132.7338 0001470  83.2526 276.8630 15.06416178 71323","INCLINATION":"53.0532","ELEMENT_SET_NO":"999","CLASSIFICATION_TYPE":"U","MEAN_MOTION":"15.06416178","OBJECT_ID":"2020-070AS","SITE":"AFETR","MEAN_ANOMALY":"276.8630","GP_ID":"193946483","COUNTRY_CODE":"US","EPHEMERIS_TYPE":"0","OBJECT_NAME":"STARLINK-1531","RCS_SIZE":"LARGE","CENTER_NAME":"EARTH","DECAY_DATE":null,"REF_FRAME":"TEME","MEAN_ELEMENT_THEORY":"SGP4","ARG_OF_PERICENTER":"83.2526","LAUNCH_DATE":"2020-10-06","APOAPSIS":"548.182","MEAN_MOTION_DOT":"0.00004531","RA_OF_ASC_NODE":"132.7338","TLE_LINE1":"1 46572U 20070AS  22015.80212321  .00004531  00000-0  32277-3 0  9999","BSTAR":"0.00032277000000","REV_AT_EPOCH":"7132","OBJECT_TYPE":"PAYLOAD","ECCENTRICITY":"0.00014700","NORAD_CAT_ID":"46572","SEMIMAJOR_AXIS":"6925.299","EPOCH":"2022-01-15T19:15:03.445344","TIME_SYSTEM":"UTC","MEAN_MOTION_DDOT":"0.0000000000000","FILE":"3274074","PERIOD":"95.591"},{"TIME_SYSTEM":"UTC","FILE":"3274074","MEAN_MOTION_DDOT":"0.0000000000000","PERIOD":"95.591","OBJECT_TYPE":"PAYLOAD","ECCENTRICITY":"0.00013040","NORAD_CAT_ID":"46573","SEMIMAJOR_AXIS":"6925.305","EPOCH":"2022-01-15T15:31:27.712128","MEAN_MOTION_DOT":"0.00002285","LAUNCH_DATE":"2020-10-06","APOAPSIS":"548.073","RA_OF_ASC_NODE":"118.4140","TLE_LINE1":"1 46573U 20070AT  22015.64684852  .00002285  00000-0  17221-3 0  9990","BSTAR":"0.00017221000000","REV_AT_EPOCH":"7151","CENTER_NAME":"EARTH","DECAY_DATE":null,"REF_FRAME":"TEME","MEAN_ELEMENT_THEORY":"SGP4","ARG_OF_PERICENTER":"88.7772","COUNTRY_CODE":"US","EPHEMERIS_TYPE":"0","OBJECT_NAME":"STARLINK-1650","RCS_SIZE":"LARGE","MEAN_ANOMALY":"271.3367","GP_ID":"193947734","ELEMENT_SET_NO":"999","CLASSIFICATION_TYPE":"U","MEAN_MOTION":"15.06414177","OBJECT_ID":"2020-070AT","SITE":"AFETR","PERIAPSIS":"546.267","TLE_LINE2":"2 46573  53.0539 118.4140 0001304  88.7772 271.3367 15.06414177 71517","INCLINATION":"53.0539"},{"OBJECT_TYPE":"PAYLOAD","ECCENTRICITY":"0.00014700","NORAD_CAT_ID":"46574","SEMIMAJOR_AXIS":"6925.303","EPOCH":"2022-01-15T18:21:18.849600","TIME_SYSTEM":"UTC","FILE":"3274074","MEAN_MOTION_DDOT":"0.0000000000000","PERIOD":"95.591","CENTER_NAME":"EARTH","DECAY_DATE":null,"REF_FRAME":"TEME","MEAN_ELEMENT_THEORY":"SGP4","ARG_OF_PERICENTER":"87.4217","LAUNCH_DATE":"2020-10-06","MEAN_MOTION_DOT":"0.00004112","APOAPSIS":"548.186","RA_OF_ASC_NODE":"117.8958","TLE_LINE1":"1 46574U 20070AU  22015.76480150  .00004112  00000-0  29470-3 0  9999","BSTAR":"0.00029470000000","REV_AT_EPOCH":"7153","MEAN_ANOMALY":"272.6940","GP_ID":"193947480","COUNTRY_CODE":"US","EPHEMERIS_TYPE":"0","OBJECT_NAME":"STARLINK-1660","RCS_SIZE":"LARGE","PERIAPSIS":"546.150","TLE_LINE2":"2 46574  53.0536 117.8958 0001470  87.4217 272.6940 15.06415019 71538","INCLINATION":"53.0536","ELEMENT_SET_NO":"999","CLASSIFICATION_TYPE":"U","MEAN_MOTION":"15.06415019","SITE":"AFETR","OBJECT_ID":"2020-070AU"},{"INCLINATION":"53.0540","TLE_LINE2":"2 46575  53.0540  93.2235 0001290  88.3533 271.7604 15.06397554 71866","PERIAPSIS":"546.328","SITE":"AFETR","OBJECT_ID":"2020-070AV","MEAN_MOTION":"15.06397554","CLASSIFICATION_TYPE":"U","ELEMENT_SET_NO":"999","GP_ID":"193946733","MEAN_ANOMALY":"271.7604","RCS_SIZE":"LARGE","OBJECT_NAME":"STARLINK-1675","EPHEMERIS_TYPE":"0","COUNTRY_CODE":"US","ARG_OF_PERICENTER":"88.3533","MEAN_ELEMENT_THEORY":"SGP4","REF_FRAME":"TEME","DECAY_DATE":null,"CENTER_NAME":"EARTH","REV_AT_EPOCH":"7186","BSTAR":"0.00011885000000","TLE_LINE1":"1 46575U 20070AV  22015.69060703  .00001489  00000-0  11885-3 0  9995","RA_OF_ASC_NODE":"93.2235","LAUNCH_DATE":"2020-10-06","APOAPSIS":"548.114","MEAN_MOTION_DOT":"0.00001489","EPOCH":"2022-01-15T16:34:28.447392","SEMIMAJOR_AXIS":"6925.356","NORAD_CAT_ID":"46575","ECCENTRICITY":"0.00012900","OBJECT_TYPE":"PAYLOAD","PERIOD":"95.592","FILE":"3274074","MEAN_MOTION_DDOT":"0.0000000000000","TIME_SYSTEM":"UTC"}];
